SL-12 R/B(2)            
1 15772U 85042D   26159.73049024  .00000032  00000+0  35694-4 0  9998
2 15772  71.1084 255.3826 0035819 340.6444 130.0097 14.22004461127337
SL-14 R/B               
1 15945U 85069B   26159.75503125  .00000486  00000+0  52102-4 0  9994
2 15945  82.5265 299.2966 0017331 249.0772 110.8590 14.86509301186368
SL-16 R/B               
1 16182U 85097B   26159.80308616 -.00000083  00000+0 -17637-4 0  9992
2 16182  71.0038 308.7291 0005591 128.1653 338.5746 14.16612368100134
SL-14 R/B               
1 16496U 86006B   26159.77446225  .00000613  00000+0  62414-4 0  9996
2 16496  82.5260 174.0302 0075573 331.7751  27.9378 14.86937411162742
COSMOS 1743             
1 16719U 86034A   26159.52343510  .00043901  00000+0  42569-3 0  9996
2 16719  82.5285 337.9396 0003526 312.4740  47.6222 15.66165646194433
SL-14 R/B               
1 16792U 86046B   26159.80131426  .00000398  00000+0  43030-4 0  9990
2 16792  82.4817 354.1004 0021630 288.1203  71.7657 14.85665600139939
SL-14 R/B               
1 16882U 86055B   26159.41146829  .00000406  00000+0  43851-4 0  9991
2 16882  82.5211  41.3838 0019794  35.8696 141.2267 14.85717186132838
AJISAI (EGS)            
1 16908U 86061A   26159.80737431 -.00000084  00000+0  92952-4 0  9994
2 16908  50.0060 173.1636 0011265 159.3449  16.8642 12.44516748479340
SL-14 R/B               
1 17567U 87024B   26159.06104327  .00000422  00000+0  45174-4 0  9995
2 17567  82.5284   7.8295 0017333 325.6156  34.3938 14.86207476101550
COSMOS 1833             
1 17589U 87027A   26159.33034897  .00000314  00000+0  19339-3 0  9999
2 17589  70.9157 135.4853 0022584  69.8097 290.5450 14.13043325 23129
SL-16 R/B               
1 17590U 87027B   26159.81661017  .00000141  00000+0  93816-4 0  9995
2 17590  71.0032  84.4673 0006118 322.3387  37.7308 14.17172003 28254
SL-14 R/B               
1 17912U 87038B   26159.50660270  .00000364  00000+0  39344-4 0  9994
2 17912  82.5015 211.2487 0018187 220.9809 139.0041 14.85440375 92711
COSMOS 1844             
1 17973U 87041A   26159.83360120 -.00000152  00000+0 -53793-4 0  9993
2 17973  70.8982 201.9279 0033238 247.5936 112.1663 14.14569731 16477
SL-14 R/B               
1 18153U 87055B   26159.73707030  .00000445  00000+0  48270-4 0  9990
2 18153  82.4996 263.1944 0022068  73.9287 286.4356 14.85705333 83454
COSMOS 1867             
1 18187U 87060A   26159.81977353 -.00000048  00000+0  19686-4 0  9998
2 18187  65.0116  51.4923 0016336 282.0568  77.8686 14.31514937 32982
SL-14 R/B               
1 18749U 88001B   26159.80584289  .00000453  00000+0  49540-4 0  9990
2 18749  82.5125 109.6582 0016651 299.8215  60.1345 14.85603603 55555
COSMOS 1933             
1 18958U 88020A   26159.73558699  .00004015  00000+0  19236-3 0  9997
2 18958  82.5123 160.8047 0002687 221.4271 138.6759 15.18662685 64043
SL-3 R/B                
1 19046U 88032B   26159.75538520  .00004576  00000+0  20945-3 0  9993
2 19046  97.5252 142.8052 0023649 276.7196  83.1348 15.20778372 65949
SL-16 R/B               
1 19120U 88039B   26159.45401461  .00000101  00000+0  70234-4 0  9990
2 19120  71.0148 236.6245 0022711 206.0530 153.9454 14.19629145971261
COSMOS 1953             
1 19210U 88050A   26159.77770825  .00007630  00000+0  26229-3 0  9999
2 19210  82.5077  66.5128 0011446 152.4135 207.7715 15.29860438 51707
SL-8 R/B                
1 19257U 88053B   26159.81077744  .00000234  00000+0  84120-4 0  9996
2 19257  74.0478 304.4980 0019213 102.8949   4.0008 14.38964503989701
COSMOS 1975             
1 19573U 88093A   26159.12460431  .00007923  00000+0  27799-3 0  9994
2 19573  82.5200  26.8176 0010565 203.4179 156.6582 15.29211307 33221
SL-14 R/B               
1 19574U 88093B   26159.51818590  .00000509  00000+0  55505-4 0  9991
2 19574  82.5305 316.7842 0022191  97.1580 328.0240 14.85735423 14508
SL-16 R/B               
1 19650U 88102B   26159.81166448 -.00000096  00000+0 -24306-4 0  9996
2 19650  71.0005 319.7626 0016092 237.0387 122.9189 14.16166642939794
INTERCOSMOS 24          
1 20261U 89080A   26159.83586861  .00000864  00000+0  24496-3 0  9999
2 20261  82.6074  45.0784 1188351  81.2657 292.0901 12.59648433678272
SL-14 R/B               
1 20262U 89080C   26159.60270329  .00000450  00000+0  13426-3 0  9996
2 20262  82.5920 114.8223 1229236 337.0442  17.9894 12.50565304671518
DELTA 1 R/B             
1 20323U 89089B   26159.80455319  .00000351  00000+0  95431-4 0  9996
2 20323  97.0641 352.7042 0068507 193.4465 166.4910 14.50725929908941
ARIANE 40 R/B           
1 20443U 90005H   26159.77557340  .00000257  00000+0  95068-4 0  9993
2 20443  98.2962 217.6527 0008859 293.4488  66.5769 14.39923230905918
DELTA 2 R/B(1)          
1 20453U 90008B   26159.65977848  .00086092  00000+0  66851-3 0  9991
2 20453  35.6012 292.6520 0067076  33.1604 327.3315 15.67497220940361
COSMOS 2058             
1 20465U 90010A   26159.79679323  .00003339  00000+0  19289-3 0  9995
2 20465  82.4662 317.6304 0010304  29.0616 331.1185 15.11956725956007
SL-14 R/B               
1 20466U 90010B   26159.80492152  .00000359  00000+0  40447-4 0  9991
2 20466  82.5016 181.8170 0019831   4.3225 355.8157 14.83640988941993
