OBJECT_NAME,OBJECT_ID,EPOCH,MEAN_MOTION,ECCENTRICITY,INCLINATION,RA_OF_ASC_NODE,ARG_OF_PERICENTER,MEAN_ANOMALY,EPHEMERIS_TYPE,CLASSIFICATION_TYPE,NORAD_CAT_ID,ELEMENT_SET_NO,REV_AT_EPOCH,BSTAR,MEAN_MOTION_DOT,MEAN_MOTION_DDOT
SL-12 R/B(2),1985-042D,2026-06-08T17:31:54.356736,14.22004461,.0035819,71.1084,255.3826,340.6444,130.0097,0,U,15772,999,12733,.35694E-4,.32E-6,0
SL-14 R/B,1985-069B,2026-06-08T18:07:14.700000,14.86509301,.0017331,82.5265,299.2966,249.0772,110.8590,0,U,15945,999,18636,.52102E-4,.486E-5,0
SL-16 R/B,1985-097B,2026-06-08T19:16:26.644224,14.16612368,.0005591,71.0038,308.7291,128.1653,338.5746,0,U,16182,999,10013,-.17637E-4,-.83E-6,0
SL-14 R/B,1986-006B,2026-06-08T18:35:13.538400,14.86937411,.0075573,82.5260,174.0302,331.7751,27.9378,0,U,16496,999,16274,.62414E-4,.613E-5,0
COSMOS 1743,1986-034A,2026-06-08T12:33:44.792640,15.66165646,.00035262,82.5285,337.9396,312.4740,47.6222,0,U,16719,999,19443,.42568588E-3,.43901E-3,0
SL-14 R/B,1986-046B,2026-06-08T19:13:53.552064,14.85665600,.002163,82.4817,354.1004,288.1203,71.7657,0,U,16792,999,13993,.4303E-4,.398E-5,0
SL-14 R/B,1986-055B,2026-06-08T09:52:30.860256,14.85717186,.0019794,82.5211,41.3838,35.8696,141.2267,0,U,16882,999,13283,.43851392E-4,.406E-5,0
AJISAI (EGS),1986-061A,2026-06-08T19:22:37.140384,12.44516748,.0011265,50.0060,173.1636,159.3449,16.8642,0,U,16908,999,47934,.92952E-4,-.84E-6,0
SL-14 R/B,1987-024B,2026-06-08T01:27:54.138528,14.86207476,.00173336,82.5284,7.8295,325.6156,34.3938,0,U,17567,999,10155,.45173521E-4,.422E-5,0
COSMOS 1833,1987-027A,2026-06-08T07:55:42.151008,14.13043325,.00225849,70.9157,135.4853,69.8097,290.5450,0,U,17589,999,2312,.19339092E-3,.314E-5,0
SL-16 R/B,1987-027B,2026-06-08T19:35:55.118688,14.17172003,.0006118,71.0032,84.4673,322.3387,37.7308,0,U,17590,999,2825,.93816E-4,.141E-5,0
SL-14 R/B,1987-038B,2026-06-08T12:09:30.473280,14.85440375,.00181879,82.5015,211.2487,220.9809,139.0041,0,U,17912,999,9271,.39343844E-4,.364E-5,0
COSMOS 1844,1987-041A,2026-06-08T20:00:23.143680,14.14569731,.0033238,70.8982,201.9279,247.5936,112.1663,0,U,17973,999,1647,-.53793E-4,-.152E-5,0
SL-14 R/B,1987-055B,2026-06-08T17:41:22.873920,14.85705333,.0022068,82.4996,263.1944,73.9287,286.4356,0,U,18153,999,8345,.4827E-4,.445E-5,0
COSMOS 1867,1987-060A,2026-06-08T19:40:28.432992,14.31514937,.0016336,65.0116,51.4923,282.0568,77.8686,0,U,18187,999,3298,.19686E-4,-.48E-6,0
SL-14 R/B,1988-001B,2026-06-08T19:20:24.825696,14.85603603,.0016651,82.5125,109.6582,299.8215,60.1345,0,U,18749,999,5555,.4954E-4,.453E-5,0
COSMOS 1933,1988-020A,2026-06-08T17:39:14.715936,15.18662685,.0002687,82.5123,160.8047,221.4271,138.6759,0,U,18958,999,6404,.19236E-3,.4015E-4,0
SL-3 R/B,1988-032B,2026-06-08T18:07:45.281280,15.20778372,.0023649,97.5252,142.8052,276.7196,83.1348,0,U,19046,999,6594,.20945E-3,.4576E-4,0
SL-16 R/B,1988-039B,2026-06-08T10:53:46.862304,14.19629145,.00227112,71.0148,236.6245,206.0530,153.9454,0,U,19120,999,97126,.70234398E-4,.101E-5,0
COSMOS 1953,1988-050A,2026-06-08T18:39:53.992800,15.29860438,.0011446,82.5077,66.5128,152.4135,207.7715,0,U,19210,999,5170,.26229E-3,.763E-4,0
SL-8 R/B,1988-053B,2026-06-08T19:27:31.170816,14.38964503,.0019213,74.0478,304.4980,102.8949,4.0008,0,U,19257,999,98970,.8412E-4,.234E-5,0
COSMOS 1975,1988-093A,2026-06-08T02:59:25.812384,15.29211307,.00105652,82.5200,26.8176,203.4179,156.6582,0,U,19573,999,3322,.27799242E-3,.7923E-4,0
SL-14 R/B,1988-093B,2026-06-08T12:26:11.261760,14.85735423,.00221911,82.5305,316.7842,97.1580,328.0240,0,U,19574,999,1450,.55505334E-4,.509E-5,0
SL-16 R/B,1988-102B,2026-06-08T19:28:47.811072,14.16166642,.0016092,71.0005,319.7626,237.0387,122.9189,0,U,19650,999,93979,-.24306E-4,-.96E-6,0
INTERCOSMOS 24,1989-080A,2026-06-08T20:03:39.047904,12.59648433,.1188351,82.6074,45.0784,81.2657,292.0901,0,U,20261,999,67827,.24496E-3,.864E-5,0
SL-14 R/B,1989-080C,2026-06-08T14:27:53.564256,12.50565304,.1229236,82.5920,114.8223,337.0442,17.9894,0,U,20262,999,67151,.13426E-3,.45E-5,0
DELTA 1 R/B,1989-089B,2026-06-08T19:18:33.395616,14.50725929,.0068507,97.0641,352.7042,193.4465,166.4910,0,U,20323,999,90894,.95431E-4,.351E-5,0
ARIANE 40 R/B,1990-005H,2026-06-08T18:36:49.541760,14.39923230,.0008859,98.2962,217.6527,293.4488,66.5769,0,U,20443,999,90591,.95068E-4,.257E-5,0
DELTA 2 R/B(1),1990-008B,2026-06-08T15:50:04.860672,15.67497220,.0067076,35.6012,292.6520,33.1604,327.3315,0,U,20453,999,94036,.66851E-3,.86092E-3,0
COSMOS 2058,1990-010A,2026-06-08T19:07:22.935072,15.11956725,.0010304,82.4662,317.6304,29.0616,331.1185,0,U,20465,999,95600,.19289E-3,.3339E-4,0
SL-14 R/B,1990-010B,2026-06-08T19:19:05.219328,14.83640988,.0019831,82.5016,181.8170,4.3225,355.8157,0,U,20466,999,94199,.40447E-4,.359E-5,0
